OSCAR 7 (AO-7)          
1 07530U 74089B   21189.49002208 -.00000046  00000-0  60430-6 0  9999
2 07530 101.8547 163.9715 0012206 343.9779 131.9729 12.53649392134361
PHASE 3B (AO-10)        
1 14129U 83058B   21189.39297228 -.00000061  00000-0  00000-0 0  9992
2 14129  26.1507 151.3452 6005544 349.5258   1.9126  2.05869161258328
UOSAT 2 (UO-11)         
1 14781U 84021B   21189.50883023  .00000135  00000-0  22586-4 0  9992
2 14781  97.5924 188.3134 0008945  22.4202 337.7402 14.83300319989054
LUSAT (LO-19)           
1 20442U 90005G   21189.43436787 -.00000020  00000-0  90905-5 0  9990
2 20442  98.7425 145.0932 0012902  98.4938 261.7708 14.32990847643830
EYESAT A (AO-27)        
1 22825U 93061C   21189.50754396 -.00000002  00000-0  17118-4 0  9993
2 22825  98.9162 207.6390 0008003 340.9492  19.1388 14.30118697448999
ITAMSAT (IO-26)         
1 22826U 93061D   21189.33306902  .00000005  00000-0  19930-4 0  9997
2 22826  98.9104 207.3670 0008311 327.6621  32.4050 14.30458166449210
RADIO ROSTO (RS-15)     
1 23439U 94085A   21189.63389521 -.00000037  00000-0  15882-3 0  9993
2 23439  64.8157 341.7052 0161484 331.5960  27.6232 11.27570203 92727
JAS-2 (FO-29)           
1 24278U 96046B   21189.45020394 -.00000049  00000-0 -16522-4 0  9991
2 24278  98.5662 254.6429 0351382  95.2748 268.8581 13.53105078229082
TECHSAT 1B (GO-32)      
1 25397U 98043D   21189.41921203 -.00000022  00000-0  97626-5 0  9993
2 25397  98.7718 134.9150 0002059  52.8469 307.2897 14.23711157194474
ISS (ZARYA)             
1 25544U 98067A   21189.89324074  .00000844  00000-0  23621-4 0  9992
2 25544  51.6438 235.3851 0002018 142.9348 212.7565 15.48774199291957
PCSAT (NO-44)           
1 26931U 01043C   21189.57040035 -.00000018  00000-0  24673-4 0  9990
2 26931  67.0498 225.9392 0006227 261.4632  98.5763 14.30624255 32218
SAUDISAT 1C (SO-50)     
1 27607U 02058C   21189.51107788 -.00000002  00000-0  20253-4 0  9994
2 27607  64.5555 273.9529 0043092  13.9652 346.2631 14.75763449997634
CUTE-1 (CO-55)          
1 27844U 03031E   21189.51023743  .00000055  00000-0  44325-4 0  9990
2 27844  98.6790 197.4025 0010373  24.8328 335.3347 14.22318750934978
CUBESAT XI-IV (CO-57)   
1 27848U 03031J   21189.43932911  .00000047  00000-0  41185-4 0  9993
2 27848  98.6846 197.8959 0010513  37.5160 322.6749 14.21894778934798
MOZHAYETS 4 (RS-22)     
1 27939U 03042A   21189.59440944  .00000172  00000-0  39414-4 0  9994
2 27939  98.1435 326.5437 0012399 207.7730 152.2821 14.66997884950627
CUBESAT XI-V            
1 28895U 05043F   21189.34115323  .00000147  00000-0  36943-4 0  9998
2 28895  98.0616 322.1262 0017697 141.2852 218.9623 14.63929741837066
FALCONSAT-3             
1 30776U 07006E   21189.55069751  .00004539  00000-0  10849-3 0  9991
2 30776  35.4352 324.6201 0001498  94.6333 265.4566 15.40991030796362
CUTE-1.7+APD II (CO-65) 
1 32785U 08021C   21189.16817709  .00000306  00000-0  38401-4 0  9995
2 32785  97.6118 167.2080 0011547 298.4070  61.5983 14.88745677715328
DELFI-C3 (DO-64)        
1 32789U 08021G   21189.36867181  .00002548  00000-0  16431-3 0  9998
2 32789  97.3744 223.9281 0013401  74.0890 286.1815 15.09099271719987
SEEDS II (CO-66)        
1 32791U 08021J   21189.22762961  .00000572  00000-0  62506-4 0  9996
2 32791  97.5715 173.1567 0011558 255.9365 104.0569 14.91439920715878
YUBILEINY (RS-30)       
1 32953U 08025A   21189.39490018  .00000021  00000-0  80971-4 0  9994
2 32953  82.5046  37.9061 0018831 293.4513  66.4589 12.43102305595584
KKS-1 (KISEKI)          
1 33499U 09002H   21189.55944584  .00000117  00000-0  25068-4 0  9998
2 33499  98.2661  59.9981 0008652 342.3823  17.7085 14.75672472669520
SWISSCUBE               
1 35932U 09051B   21189.51339373  .00000148  00000-0  44247-4 0  9990
2 35932  98.6015  30.1945 0008221  31.4311 328.7376 14.56550396626027
BEESAT-1                
1 35933U 09051C   21189.54690697  .00000125  00000-0  39160-4 0  9996
2 35933  98.5977  32.0401 0006641  44.8804 315.2929 14.56606298626108
ITUPSAT1                
1 35935U 09051E   21189.56363453  .00000108  00000-0  35779-4 0  9990
2 35935  98.6081  32.1912 0008948  43.6099 316.5804 14.55737715625844
XIWANG-1 (HOPE-1)       
1 36122U 09072B   21189.50653785 -.00000029  00000-0  35970-4 0  9992
2 36122 100.1315 169.2998 0008090  56.2131 303.9754 13.16361483555660
JUGNU                   
1 37839U 11058B   21189.45404303  .00000278  00000-0  66169-5 0  9999
2 37839  19.9614 101.8308 0018757 324.1151 192.8682 14.12718048503435
SRMSAT                  
1 37841U 11058D   21189.28310509  .00000292  00000-0  15084-4 0  9992
2 37841  19.9707 175.1805 0011961 161.8771 227.8153 14.10698578502604
M-CUBED & EXP-1 PRIME   
1 37855U 11061F   21189.52557447  .00002977  00000-0  14871-3 0  9996
2 37855 101.7121 123.8498 0166553   8.1023 352.2820 15.07827101529356
STRAND-1                
1 39090U 13009E   21189.53107577  .00000044  00000-0  30466-4 0  9991
2 39090  98.4264  31.2347 0008449 209.3877 150.6834 14.35176285438067
SOMP                    
1 39134U 13015E   21188.93650935  .00002404  00000-0  11129-3 0  9997
2 39134  64.8641 105.8501 0010450 316.2682  43.7618 15.22710588454336
BEESAT-3                
1 39135U 13015F   21189.30846568  .00001908  00000-0  98807-4 0  9996
2 39135  64.8673 134.1731 0005881 345.1955  14.8999 15.19476294453786
BEESAT-2                
1 39136U 13015G   21189.31517331  .00001479  00000-0  79909-4 0  9996
2 39136  64.8741 140.6302 0023128 242.5611 117.3164 15.18824482453634
ZACUBE-1 (TSHEPISOSAT)  
1 39417U 13066B   21189.52244665  .00000324  00000-0  46463-4 0  9991
2 39417  97.5933 172.7586 0060207  91.9917 268.8193 14.81536979412196
GOMX-1                  
1 39430U 13066Q   21189.50941489  .00000306  00000-0  63568-4 0  9997
2 39430  97.8133 111.3696 0151842  48.8444 312.5731 14.59630178406110
CUBEBUG-2 (LO-74)       
1 39440U 13066AA  21189.46412611  .00000236  00000-0  39461-4 0  9990
2 39440  97.6771 157.7739 0080050 166.2842 194.0570 14.76262861409529
FUNCUBE-1 (AO-73)       
1 39444U 13066AE  21189.49367662  .00000413  00000-0  56211-4 0  9991
2 39444  97.5837 175.0994 0059263  82.5834 278.2109 14.82449557410558
UWE-3                   
1 39446U 13066AG  21189.46848177  .00000263  00000-0  41085-4 0  9991
2 39446  97.6376 164.6868 0070821 129.9249 230.8216 14.78801982409619
SPROUT                  
1 39770U 14029E   21189.38354240  .00001160  00000-0  13090-3 0  9996
2 39770  97.9183 300.6397 0009621 132.5880 227.6143 14.88487001386450
UNISAT-6                
1 40012U 14033C   21189.53988157  .00000260  00000-0  45530-4 0  9994
2 40012  97.6747  30.8515 0057728 190.6882 169.3105 14.74332592379301
DUCHIFAT-1              
1 40021U 14033M   21189.40113170  .00000535  00000-0  59381-4 0  9999
2 40021  97.9732 129.8167 0014275  94.2975 265.9875 14.91375600383401
QB50P1                  
1 40025U 14033R   21189.51364312  .00000325  00000-0  40143-4 0  9994
2 40025  97.9333 120.2564 0013784 106.9495 253.3234 14.89467302382553
NUDT-PHONESAT           
1 40900U 15049B   21189.55783227  .00004152  00000-0  16092-3 0  9995
2 40900  97.4192 203.5324 0013635  67.9894  51.4410 15.26621977322049
ZDPS 2A                 
1 40901U 15049C   21189.60000376  .00002150  00000-0  10392-3 0  9992
2 40901  97.4613 196.5363 0014666 105.0341  10.8119 15.19613979321182
ZDPS 2B                 
1 40902U 15049D   21189.57891573  .00002078  00000-0  10047-3 0  9992
2 40902  97.4645 193.8678 0014624 102.5914  13.5497 15.19651307321152
XW-2A                   
1 40903U 15049E   21189.55076825  .00004018  00000-0  85548-4 0  9991
2 40903  97.2352 243.9693 0010461 302.6535 193.8369 15.45485959326058
KAITUO 1A               
1 40904U 15049F   21189.60665503  .00001039  00000-0  57045-4 0  9996
2 40904  97.4857 191.1535 0015774 120.0835 359.7118 15.16235007320747
2015-049G               
1 40905U 15049G   21189.59278596  .00000874  00000-0  50198-4 0  9995
2 40905  97.5002 188.2413 0016859 120.5278 358.1262 15.15033210320535
XW-2C                   
1 40906U 15049H   21189.54423847  .00001142  00000-0  61403-4 0  9992
2 40906  97.4854 191.6333 0016049 111.1172   5.1600 15.16794667320760
XW-2D                   
1 40907U 15049J   21189.60050978  .00001359  00000-0  71751-4 0  9998
2 40907  97.4844 191.4898 0015477 107.5085  11.7014 15.17123297320803
LILACSAT-2              
1 40908U 15049K   21189.56971102  .00000336  00000-0  21821-4 0  9992
2 40908  97.5028 189.2723 0016985 122.8771  25.4935 15.14468715320424
XW-2F                   
1 40910U 15049M   21189.59601047  .00001889  00000-0  92963-4 0  9995
2 40910  97.4718 194.6016 0016049  95.4992  23.2910 15.19125305320933
XW-2B                   
1 40911U 15049N   21189.60479774  .00001356  00000-0  71802-4 0  9996
2 40911  97.4849 192.1731 0015426 108.7394  12.3117 15.17039613320693
KAITUO 1B               
1 40912U 15049P   21189.55791334  .00002127  00000-0  96882-4 0  9992
2 40912  97.4435 198.9380 0016105  70.7575  47.3705 15.21677016321404
TIANWANG 1A (TW-1A)     
1 40928U 15051D   21189.57362083  .00005615  00000-0  11632-3 0  9993
2 40928  97.0753 213.9694 0008300 204.5979 275.5794 15.46116111324956
LAPAN-A2                
1 40931U 15052B   21187.52225339  .00000656  00000-0  22002-5 0  9998
2 40931   5.9945 116.3829 0013766 314.1872  45.7216 14.76679496312123
E-ST@R-II               
1 41459U 16025D   21189.44738833  .00001916  00000-0  96679-4 0  9996
2 41459  98.1441 326.9002 0159131 352.2565   7.6227 15.08207075285589
AAUSAT 4                
1 41460U 16025E   21189.36693711  .00002337  00000-0  11156-3 0  9998
2 41460  98.1442 330.7997 0145844 336.0882  23.3638 15.11331396285877
NUSAT-1 (FRESCO)        
1 41557U 16033B   21189.52230618  .00002482  00000-0  89095-4 0  9994
2 41557  97.3941 283.3424 0013630 153.6697 263.2039 15.29562348284759
